start=new Date('2023-04-13T00:00:00.000Z').valueOf();
sats=[{"INCLINATION":"53.2189","MEAN_ANOMALY":"286.6806","TLE_LINE2":"2 53997  53.2189 292.4507 0000641  73.4256 286.6806 15.08831598 29252","BSTAR":"0.00002124400000","OBJECT_TYPE":"PAYLOAD","MEAN_ELEMENT_THEORY":"SGP4","ELEMENT_SET_NO":"999","DECAY_DATE":null,"EPOCH":"2023-04-12T13:21:25.818048","REV_AT_EPOCH":"2925","ECCENTRICITY":"0.00006410","MEAN_MOTION_DDOT":"0.0000000000000","TLE_LINE1":"1 53997U 22125AK  23102.55654882  .00000050  00000-0  21244-4 0  9998","LAUNCH_DATE":"2022-10-05","ARG_OF_PERICENTER":"73.4256","TIME_SYSTEM":"UTC","MEAN_MOTION_DOT":"0.00000050","APOAPSIS":"540.215","MEAN_MOTION":"15.08831598","CLASSIFICATION_TYPE":"U","RCS_SIZE":"LARGE","OBJECT_ID":"2022-125AK","OBJECT_NAME":"STARLINK-5130","NORAD_CAT_ID":"53997","SITE":"AFWTR","SEMIMAJOR_AXIS":"6917.906","CENTER_NAME":"EARTH","PERIOD":"95.438","RA_OF_ASC_NODE":"292.4507","REF_FRAME":"TEME","GP_ID":"229984095","COUNTRY_CODE":"US","EPHEMERIS_TYPE":"0","PERIAPSIS":"539.328","FILE":"3886349"},{"SITE":"AFWTR","SEMIMAJOR_AXIS":"6917.895","CENTER_NAME":"EARTH","PERIOD":"95.438","RA_OF_ASC_NODE":"303.3642","REF_FRAME":"TEME","GP_ID":"229985344","COUNTRY_CODE":"US","EPHEMERIS_TYPE":"0","FILE":"3886349","PERIAPSIS":"539.018","MEAN_MOTION":"15.08835361","RCS_SIZE":"LARGE","CLASSIFICATION_TYPE":"U","OBJECT_ID":"2022-125AL","OBJECT_NAME":"STARLINK-5128","NORAD_CAT_ID":"53998","DECAY_DATE":null,"EPOCH":"2023-04-12T06:01:34.277952","REV_AT_EPOCH":"2907","ECCENTRICITY":"0.00010720","MEAN_MOTION_DDOT":"0.0000000000000","TLE_LINE1":"1 53998U 22125AL  23102.25109118 -.00000321  00000-0 -21054-5 0  9996","LAUNCH_DATE":"2022-10-05","ARG_OF_PERICENTER":"87.6037","TIME_SYSTEM":"UTC","MEAN_MOTION_DOT":"-0.00000321","APOAPSIS":"540.501","INCLINATION":"53.2164","MEAN_ANOMALY":"272.5078","TLE_LINE2":"2 53998  53.2164 303.3642 0001072  87.6037 272.5078 15.08835361 29078","BSTAR":"-0.00000210540000","OBJECT_TYPE":"PAYLOAD","MEAN_ELEMENT_THEORY":"SGP4","ELEMENT_SET_NO":"999"},{"MEAN_ANOMALY":"273.1212","INCLINATION":"53.2159","ELEMENT_SET_NO":"999","MEAN_ELEMENT_THEORY":"SGP4","OBJECT_TYPE":"PAYLOAD","BSTAR":"0.00067367000000","TLE_LINE2":"2 53999  53.2159 304.6361 0001080  86.9904 273.1212 15.08840844 29034","ECCENTRICITY":"0.00010800","MEAN_MOTION_DDOT":"0.0000000000000","REV_AT_EPOCH":"2903","EPOCH":"2023-04-11T23:59:52.219680","DECAY_DATE":null,"MEAN_MOTION_DOT":"0.00010450","APOAPSIS":"540.490","TIME_SYSTEM":"UTC","ARG_OF_PERICENTER":"86.9904","LAUNCH_DATE":"2022-10-05","TLE_LINE1":"1 53999U 22125AM  23101.99990995  .00010450  00000-0  67367-3 0  9995","RCS_SIZE":"LARGE","CLASSIFICATION_TYPE":"U","MEAN_MOTION":"15.08840844","NORAD_CAT_ID":"53999","OBJECT_NAME":"STARLINK-5079","OBJECT_ID":"2022-125AM","GP_ID":"229985582","PERIOD":"95.438","RA_OF_ASC_NODE":"304.6361","REF_FRAME":"TEME","CENTER_NAME":"EARTH","SEMIMAJOR_AXIS":"6917.878","SITE":"AFWTR","PERIAPSIS":"538.996","FILE":"3886349","EPHEMERIS_TYPE":"0","COUNTRY_CODE":"US"},{"FILE":"3886388","PERIAPSIS":"538.878","EPHEMERIS_TYPE":"0","COUNTRY_CODE":"US","GP_ID":"229986440","CENTER_NAME":"EARTH","PERIOD":"95.437","REF_FRAME":"TEME","RA_OF_ASC_NODE":"291.2373","SITE":"AFWTR","SEMIMAJOR_AXIS":"6917.850","NORAD_CAT_ID":"54000","OBJECT_NAME":"STARLINK-5088","OBJECT_ID":"2022-125AN","RCS_SIZE":"LARGE","CLASSIFICATION_TYPE":"U","MEAN_MOTION":"15.08850016","APOAPSIS":"540.551","MEAN_MOTION_DOT":"0.00010124","TIME_SYSTEM":"UTC","LAUNCH_DATE":"2022-10-05","ARG_OF_PERICENTER":"95.3385","TLE_LINE1":"1 54000U 22125AN  23102.81782065  .00010124  00000-0  65306-3 0  9997","ECCENTRICITY":"0.00012090","MEAN_MOTION_DDOT":"0.0000000000000","EPOCH":"2023-04-12T19:37:39.704160","REV_AT_EPOCH":"2936","DECAY_DATE":null,"ELEMENT_SET_NO":"999","OBJECT_TYPE":"PAYLOAD","MEAN_ELEMENT_THEORY":"SGP4","TLE_LINE2":"2 54000  53.2162 291.2373 0001209  95.3385 264.7745 15.08850016 29361","BSTAR":"0.00065306000000","MEAN_ANOMALY":"264.7745","INCLINATION":"53.2162"},{"TLE_LINE2":"2 54001  53.2154 301.8707 0001249  90.5543 269.5592 15.08839540 29125","BSTAR":"0.00003871000000","ELEMENT_SET_NO":"999","OBJECT_TYPE":"PAYLOAD","MEAN_ELEMENT_THEORY":"SGP4","INCLINATION":"53.2154","MEAN_ANOMALY":"269.5592","LAUNCH_DATE":"2022-10-05","ARG_OF_PERICENTER":"90.5543","TLE_LINE1":"1 54001U 22125AP  23102.58133156  .00000328  00000-0  38710-4 0  9998","APOAPSIS":"540.611","MEAN_MOTION_DOT":"0.00000328","TIME_SYSTEM":"UTC","EPOCH":"2023-04-12T13:57:07.046784","REV_AT_EPOCH":"2912","DECAY_DATE":null,"ECCENTRICITY":"0.00012490","MEAN_MOTION_DDOT":"0.0000000000000","OBJECT_NAME":"STARLINK-5105","OBJECT_ID":"2022-125AP","NORAD_CAT_ID":"54001","MEAN_MOTION":"15.08839540","RCS_SIZE":"LARGE","CLASSIFICATION_TYPE":"U","EPHEMERIS_TYPE":"0","COUNTRY_CODE":"US","FILE":"3886349","PERIAPSIS":"538.883","CENTER_NAME":"EARTH","PERIOD":"95.438","RA_OF_ASC_NODE":"301.8707","REF_FRAME":"TEME","SITE":"AFWTR","SEMIMAJOR_AXIS":"6917.882","GP_ID":"229984596"},{"ELEMENT_SET_NO":"999","OBJECT_TYPE":"PAYLOAD","MEAN_ELEMENT_THEORY":"SGP4","TLE_LINE2":"2 54002  53.2144 293.3637 0001497  81.5990 278.5172 15.08837847 29215","BSTAR":"0.00016674000000","MEAN_ANOMALY":"278.5172","INCLINATION":"53.2144","MEAN_MOTION_DOT":"0.00002367","APOAPSIS":"540.788","TIME_SYSTEM":"UTC","LAUNCH_DATE":"2022-10-05","ARG_OF_PERICENTER":"81.5990","TLE_LINE1":"1 54002U 22125AQ  23102.24368757  .00002367  00000-0  16674-3 0  9998","ECCENTRICITY":"0.00014970","MEAN_MOTION_DDOT":"0.0000000000000","EPOCH":"2023-04-12T05:50:54.606048","REV_AT_EPOCH":"2921","DECAY_DATE":null,"NORAD_CAT_ID":"54002","OBJECT_NAME":"STARLINK-5109","OBJECT_ID":"2022-125AQ","CLASSIFICATION_TYPE":"U","RCS_SIZE":"LARGE","MEAN_MOTION":"15.08837847","PERIAPSIS":"538.716","FILE":"3886349","EPHEMERIS_TYPE":"0","COUNTRY_CODE":"US","GP_ID":"229984844","CENTER_NAME":"EARTH","PERIOD":"95.438","RA_OF_ASC_NODE":"293.3637","REF_FRAME":"TEME","SITE":"AFWTR","SEMIMAJOR_AXIS":"6917.887"},{"MEAN_MOTION":"15.08833017","CLASSIFICATION_TYPE":"U","RCS_SIZE":"LARGE","OBJECT_NAME":"STARLINK-5114","OBJECT_ID":"2022-125AR","NORAD_CAT_ID":"54003","REF_FRAME":"TEME","PERIOD":"95.438","RA_OF_ASC_NODE":"303.3786","CENTER_NAME":"EARTH","SEMIMAJOR_AXIS":"6917.902","SITE":"AFWTR","GP_ID":"229986466","EPHEMERIS_TYPE":"0","COUNTRY_CODE":"US","FILE":"3886390","PERIAPSIS":"539.042","INCLINATION":"53.2150","MEAN_ANOMALY":"275.0809","BSTAR":"0.00003391800000","TLE_LINE2":"2 54003  53.2150 303.3786 0001048  85.0303 275.0809 15.08833017 29123","ELEMENT_SET_NO":"999","MEAN_ELEMENT_THEORY":"SGP4","OBJECT_TYPE":"PAYLOAD","REV_AT_EPOCH":"2912","EPOCH":"2023-04-12T06:05:29.594400","DECAY_DATE":null,"MEAN_MOTION_DDOT":"0.0000000000000","ECCENTRICITY":"0.00010480","ARG_OF_PERICENTER":"85.0303","LAUNCH_DATE":"2022-10-05","TLE_LINE1":"1 54003U 22125AR  23102.25381475  .00000252  00000-0  33918-4 0  9994","MEAN_MOTION_DOT":"0.00000252","APOAPSIS":"540.492","TIME_SYSTEM":"UTC"},{"PERIOD":"95.437","REF_FRAME":"TEME","RA_OF_ASC_NODE":"304.5025","CENTER_NAME":"EARTH","SEMIMAJOR_AXIS":"6917.869","SITE":"AFWTR","GP_ID":"229983846","EPHEMERIS_TYPE":"0","COUNTRY_CODE":"US","FILE":"3886349","PERIAPSIS":"538.766","MEAN_MOTION":"15.08843705","CLASSIFICATION_TYPE":"U","RCS_SIZE":"LARGE","OBJECT_NAME":"STARLINK-5129","OBJECT_ID":"2022-125AS","NORAD_CAT_ID":"54004","REV_AT_EPOCH":"2903","EPOCH":"2023-04-11T23:28:02.062560","DECAY_DATE":null,"MEAN_MOTION_DDOT":"0.0000000000000","ECCENTRICITY":"0.00014000","ARG_OF_PERICENTER":"71.4332","LAUNCH_DATE":"2022-10-05","TLE_LINE1":"1 54004U 22125AS  23101.97780165 -.00000356  00000-0 -42904-5 0  9995","APOAPSIS":"540.703","MEAN_MOTION_DOT":"-0.00000356","TIME_SYSTEM":"UTC","INCLINATION":"53.2168","MEAN_ANOMALY":"288.6812","BSTAR":"-0.00000429040000","TLE_LINE2":"2 54004  53.2168 304.5025 0001400  71.4332 288.6812 15.08843705 29034","ELEMENT_SET_NO":"999","MEAN_ELEMENT_THEORY":"SGP4","OBJECT_TYPE":"PAYLOAD"},{"GP_ID":"229984096","CENTER_NAME":"EARTH","RA_OF_ASC_NODE":"303.3366","PERIOD":"95.437","REF_FRAME":"TEME","SITE":"AFWTR","SEMIMAJOR_AXIS":"6917.876","PERIAPSIS":"538.850","FILE":"3886349","EPHEMERIS_TYPE":"0","COUNTRY_CODE":"US","CLASSIFICATION_TYPE":"U","RCS_SIZE":"LARGE","MEAN_MOTION":"15.08841582","NORAD_CAT_ID":"54005","OBJECT_NAME":"STARLINK-5135","OBJECT_ID":"2022-125AT","MEAN_MOTION_DDOT":"0.0000000000000","ECCENTRICITY":"0.00012870","EPOCH":"2023-04-12T05:54:52.723584","REV_AT_EPOCH":"2907","DECAY_DATE":null,"MEAN_MOTION_DOT":"0.00002335","APOAPSIS":"540.631","TIME_SYSTEM":"UTC","LAUNCH_DATE":"2022-10-05","ARG_OF_PERICENTER":"99.7727","TLE_LINE1":"1 54005U 22125AT  23102.24644356  .00002335  00000-0  16474-3 0  9996","MEAN_ANOMALY":"260.3411","INCLINATION":"53.2153","ELEMENT_SET_NO":"999","OBJECT_TYPE":"PAYLOAD","MEAN_ELEMENT_THEORY":"SGP4","TLE_LINE2":"2 54005  53.2153 303.3366 0001287  99.7727 260.3411 15.08841582 29075","BSTAR":"0.00016474000000"},{"EPOCH":"2023-04-12T13:30:34.936704","REV_AT_EPOCH":"2911","DECAY_DATE":null,"MEAN_MOTION_DDOT":"0.0000000000000","ECCENTRICITY":"0.00016670","LAUNCH_DATE":"2022-10-05","ARG_OF_PERICENTER":"83.5053","TLE_LINE1":"1 54006U 22125AU  23102.56290436 -.00001948  00000-0 -10430-3 0  9995","MEAN_MOTION_DOT":"-0.00001948","APOAPSIS":"540.862","TIME_SYSTEM":"UTC","INCLINATION":"53.2143","MEAN_ANOMALY":"276.6129","TLE_LINE2":"2 54006  53.2143 301.7660 0001667  83.5053 276.6129 15.08851954 29114","BSTAR":"-0.00010430000000","ELEMENT_SET_NO":"999","OBJECT_TYPE":"PAYLOAD","MEAN_ELEMENT_THEORY":"SGP4","CENTER_NAME":"EARTH","PERIOD":"95.437","REF_FRAME":"TEME","RA_OF_ASC_NODE":"301.7660","SITE":"AFWTR","SEMIMAJOR_AXIS":"6917.844","GP_ID":"229985345","EPHEMERIS_TYPE":"0","COUNTRY_CODE":"US","PERIAPSIS":"538.556","FILE":"3886349","MEAN_MOTION":"15.08851954","CLASSIFICATION_TYPE":"U","RCS_SIZE":"LARGE","OBJECT_NAME":"STARLINK-5096","OBJECT_ID":"2022-125AU","NORAD_CAT_ID":"54006"}];
